PROBA-1                 
1 26958U 01049B   26186.25702942  .00003050  00000+0  19801-3 0  9997
2 26958  97.9595 195.4213 0056232  62.5747 298.1184 15.07577807346340
CUTE-1 (CO-55)          
1 27844U 03031E   26186.02060450  .00000393  00000+0  18869-3 0  9991
2 27844  98.6737 194.3551 0010529 129.0136 231.1982 14.24347366194217
CUBESAT XI-IV (CO-57)   
1 27848U 03031J   26185.94773638  .00000336  00000+0  16664-3 0  9992
2 27848  98.6769 193.9817 0010102 146.4963 213.6856 14.23630898193908
APRIZESAT 4             
1 35684U 09041D   26185.99146067  .00001007  00000+0  12649-3 0  9996
2 35684  98.1407 261.6666 0041908 263.6179  96.0261 14.83904740914004
APRIZESAT 3             
1 35686U 09041F   26185.68673844  .00001745  00000+0  15458-3 0  9992
2 35686  98.2081 339.7511 0061704  10.3583 349.8892 14.96290082918995
PROBA-2                 
1 36037U 09059B   26185.98453645  .00000276  00000+0  74883-4 0  9996
2 36037  98.2456   9.0909 0012341 221.6439 138.3819 14.54870751884117
APRIZESAT 5             
1 37792U 11044E   26185.77502382  .00001335  00000+0  17570-3 0  9998
2 37792  98.2449 119.3143 0051035 307.1467  52.5088 14.81114907801395
APRIZESAT 6             
1 37793U 11044F   26185.69314662  .00001144  00000+0  16786-3 0  9998
2 37793  98.2348  96.5492 0043867  31.5223  26.4833 14.76945681799736
PROBA-V                 
1 39159U 13021A   26185.69031730  .00000182  00000+0  98030-4 0  9999
2 39159  98.3596 163.4337 0005419  83.5847 276.5949 14.23601984683603
APRIZESAT 7             
1 39416U 13066A   26185.86430322  .00001445  00000+0  14782-3 0  9997
2 39416  97.7716 138.8310 0036535 150.5113 209.8177 14.91603631683863
APRIZESAT 8             
1 39425U 13066K   26185.29294061  .00001009  00000+0  11504-3 0  9997
2 39425  97.8225 132.5230 0044684 228.3816 131.3569 14.87683163682214
BUGSAT-1 (TITA)         
1 40014U 14033E   26186.25730895  .00009158  00000+0  47806-3 0  9992
2 40014  98.0432 279.8651 0029005 118.2915 242.1248 15.15805500658572
SAUDISAT 4              
1 40016U 14033G   26185.36424346  .00000704  00000+0  99303-4 0  9994
2 40016  97.7605 330.9067 0045180  19.3039 340.9871 14.79566664648619
APRIZESAT 9             
1 40018U 14033J   26186.19415682  .00001040  00000+0  15952-3 0  9992
2 40018  97.9083 318.9547 0067002 141.5261 219.0753 14.74243337646217
APRIZESAT 10            
1 40019U 14033K   26185.81374655  .00000896  00000+0  14804-3 0  9998
2 40019  97.9672 312.3822 0077957 216.6992 142.8862 14.70902974644847
TECHDEMOSAT-1 (TDS-1)   
1 40076U 14037H   26185.94385260  .00014697  00000+0  82212-3 0  9995
2 40076  98.3820 179.9199 0005946 192.6898 167.4182 15.13574703650917
TECHNOSAT               
1 42829U 17042E   26185.40281149  .00004153  00000+0  29531-3 0  9995
2 42829  97.4295 342.4079 0018361  38.8688 321.3855 15.05060639489296
FLYING LAPTOP           
1 42831U 17042G   26186.31571728  .00005315  00000+0  41620-3 0  9998
2 42831  97.4777 341.1600 0019973  63.9242 296.4036 15.01267652489175
HAWK-A                  
1 43765U 18099H   26185.93615148  .00011705  00000+0  46600-3 0  9993
2 43765  97.3899 237.9420 0033712 220.5831 139.2893 15.24869219415806
HAWK-B                  
1 43794U 18099AN  26185.58471714  .00010696  00000+0  45148-3 0  9999
2 43794  97.3945 236.9736 0030528 240.5702 119.2487 15.23026356415689
HAWK-C                  
1 43799U 18099AT  26185.87232793  .00013945  00000+0  49562-3 0  9992
2 43799  97.3875 238.8788 0039331 220.7903 139.0391 15.28371153416619
SALSAT                  
1 46495U 20068K   26185.73936093  .00013612  00000+0  46989-3 0  9997
2 46495  97.8855 189.8756 0008222 233.3566 126.6918 15.30063013318049
HAWK-2C                 
1 47502U 21006CT  26185.69080061  .00010601  00000+0  31521-3 0  9991
2 47502  97.2264 229.6525 0008316 130.8284 229.3682 15.34887872302184
HAWK-2A                 
1 47505U 21006CW  26186.21466930  .00011033  00000+0  32773-3 0  9996
2 47505  97.2306 230.8544 0007820 132.2933 227.8975 15.34913155302266
HAWK-2B                 
1 47508U 21006CZ  26185.68750749  .00012077  00000+0  35720-3 0  9997
2 47508  97.2178 228.6413 0008350 132.1692 228.0263 15.35020288302187
HAWK-3B                 
1 48931U 21059BE  26185.53004912  .00073007  00000+0  57884-3 0  9999
2 48931  97.6642  23.8960 0003537 241.6890 118.4015 15.71070012280573
HAWK-3C                 
1 48948U 21059BX  26186.03926845  .00071570  00000+0  56598-3 0  9995
2 48948  97.6756  30.1706 0003787 240.3968 119.6917 15.71136205280655
HAWK-3A                 
1 48957U 21059CG  26185.52961685  .00073764  00000+0  58490-3 0  9999
2 48957  97.6707  26.8019 0003726 245.9261 114.1611 15.71064393280570
HAWK-5C                 
1 52754U 22057Y   26185.90725609  .00029035  00000+0  48235-3 0  9992
2 52754  97.6617 346.7263 0003739  23.9765 336.1660 15.52046769229098
HAWK-5B                 
1 52756U 22057AA  26185.90707303  .00029793  00000+0  49475-3 0  9993
2 52756  97.6632 345.0773 0004301  12.9163 347.2198 15.52050403229090
